CUTE-1 (CO-55)          
1 27844U 03031E   26161.29335645  .00000255  00000+0  12935-3 0  9999
2 27844  98.6735 169.9388 0009062 198.4654 161.6197 14.24331486190695
CUBESAT XI-IV (CO-57)   
1 27848U 03031J   26161.27835743  .00000213  00000+0  11264-3 0  9993
2 27848  98.6767 169.6423 0008624 218.4782 141.5782 14.23617138190393
CUBESAT XI-V            
1 28895U 05043F   26161.33614102  .00001246  00000+0  20389-3 0  9997
2 28895  98.2977 316.8144 0013219 223.4430 136.5736 14.72613094100747
CUTE-1.7+APD II (CO-65) 
1 32785U 08021C   26161.48699863  .00004949  00000+0  31356-3 0  9991
2 32785  97.8272 142.7662 0010330  58.6595 301.5643 15.09389877984184
CANX-2                  
1 32790U 08021H   26161.17696401  .00003090  00000+0  21877-3 0  9991
2 32790  97.8622 140.8188 0011828  71.3594 288.8915 15.05562263983754
SEEDS II (CO-66)        
1 32791U 08021J   26161.47612767  .00016320  00000+0  52179-3 0  9997
2 32791  97.7516 159.0539 0002042  26.6798 333.4547 15.32520473986269
SWISSCUBE               
1 35932U 09051B   26160.71112973  .00000922  00000+0  19187-3 0  9994
2 35932  98.4042  68.4691 0005562 230.1201 129.9511 14.62467613888060
BEESAT-1                
1 35933U 09051C   26160.99049480  .00000728  00000+0  15600-3 0  9997
2 35933  98.3972  68.4038 0003926 245.5037 114.5754 14.61708937888139
ITUPSAT1                
1 35935U 09051E   26160.97508610  .00000673  00000+0  14898-3 0  9999
2 35935  98.4056  67.5878 0006124 261.1078  98.9428 14.60430038887684
TISAT 1                 
1 36799U 10035E   26161.12641361  .00020261  00000+0  66907-3 0  9994
2 36799  98.0700 107.0500 0000399 178.3205 181.8036 15.31440689866626
AEROCUBE 4.5A           
1 38767U 12048K   26161.06974765  .00355417  54094-4  11263-2 0  9992
2 38767  64.6258  52.8485 0019678 217.3689 142.6104 15.90634459371525
STRAND-1                
1 39090U 13009E   26161.23306514  .00000258  00000+0  10110-3 0  9994
2 39090  98.3921 341.6387 0007466 249.0407 110.9981 14.37159178696068
BRITE-AUSTRIA           
1 39091U 13009F   26161.31259206  .00000151  00000+0  66105-4 0  9997
2 39091  98.3993 340.9187 0008977 259.7198 100.2977 14.36539349696069
NEE-01 PEGASO           
1 39151U 13018B   26160.89654302  .00002457  00000+0  23819-3 0  9997
2 39151  98.1215 304.8067 0012551 181.9337 178.1836 14.93627979709615
POPACS 2                
1 39269U 13055E   26161.26452525  .00012321  00000+0  20956-3 0  9993
2 39269  80.9903 152.1156 0417121 216.0318 141.2122 14.91044989662183
POPACS 3                
1 39270U 13055F   26161.24770904  .00010174  00000+0  23925-3 0  9990
2 39270  81.0014 236.7086 0552745  91.1070 275.3476 14.55994863637548
ZACUBE-1 (TSHEPISOSAT)  
1 39417U 13066B   26161.14175542  .00003283  00000+0  25692-3 0  9997
2 39417  97.8088 123.4403 0040113 272.4357  87.2274 15.01145439679670
WNISAT-1                
1 39423U 13066H   26161.34847700  .00000647  00000+0  12694-3 0  9997
2 39423  97.7194 310.9904 0161723 253.3006 105.0390 14.58051388665733
TRITON-1                
1 39427U 13066M   26161.47490803  .00001127  00000+0  14078-3 0  9995
2 39427  97.8247  71.4342 0088362 256.1698 102.9671 14.81681160673096
GOMX-1                  
1 39430U 13066Q   26161.51275196  .00001517  00000+0  23248-3 0  9992
2 39430  97.6495   2.3968 0130160  98.7213 262.8761 14.69434061668932
CUBEBUG-2 (LO-74)       
1 39440U 13066AA  26161.09650600  .00003464  00000+0  32201-3 0  9995
2 39440  97.8902 110.0449 0059087  51.9853 308.6680 14.93705686675936
NEE-02 KRYSAOR          
1 39441U 13066AB  26161.07448939  .00001787  00000+0  19963-3 0  9990
2 39441  97.8886 100.3401 0067744  92.9703 267.9268 14.86588167675143
FUNCUBE-1 (AO-73)       
1 39444U 13066AE  26161.49372911  .00005047  00000+0  31555-3 0  9999
2 39444  97.8263 132.7998 0034999 224.2393 135.6036 15.09407831678653
UWE-3                   
1 39446U 13066AG  26161.13046369  .00003961  00000+0  34171-3 0  9997
2 39446  97.8685 117.1571 0048662 344.7844  15.1910 14.96967920676520
BRITE-CA1 (TORONTO)     
1 40020U 14033L   26161.31126831  .00000595  00000+0  97300-4 0  9999
2 40020  97.9730 290.3663 0077388 299.4198  59.9301 14.72667174641202
DUCHIFAT-1              
1 40021U 14033M   26161.43136475  .00098092  00000+0  10616-2 0  9990
2 40021  98.0468 219.6499 0004198 126.9864 233.1777 15.63249626654696
NANOSATC-BR1            
1 40024U 14033Q   26160.82160203  .00016529  00000+0  55026-3 0  9991
2 40024  98.0733 192.5577 0003684 183.5527 176.5687 15.31222674652859
QB50P1                  
1 40025U 14033R   26161.49333691  .00007323  00000+0  36199-3 0  9991
2 40025  98.0971 172.1703 0007230 241.8830 118.1672 15.18159274652019
QB50P2                  
1 40032U 14033Y   26161.49581433  .00005829  00000+0  31531-3 0  9992
2 40032  98.0751 157.9598 0007303 184.9608 175.1552 15.15072964651653
PERSEUS-M2              
1 40037U 14033AD  26161.50610973  .00000675  00000+0  66484-4 0  9991
2 40037  97.9963 111.9110 0011317 329.7162  30.3403 14.95491312649782
